CCSDS_OMM_VERS = 2.0
CREATION_DATE  = 
ORIGINATOR     = 

OBJECT_NAME    = UNKNOWN
OBJECT_ID      = 
CENTER_NAME    = EARTH
REF_FRAME      = TEME
TIME_SYSTEM    = UTC
MEAN_ELEMENT_THEORY = SGP/SGP4

EPOCH          = 2026-01-16T11:13:32.094048
MEAN_MOTION    = 10.71390161
ECCENTRICITY   = .09906558
INCLINATION    = 101.9065
RA_OF_ASC_NODE = 291.1040
ARG_OF_PERICENTER = 192.6957
MEAN_ANOMALY   = 164.7269

EPHEMERIS_TYPE = 0
CLASSIFICATION_TYPE = U
NORAD_CAT_ID   = 270246
ELEMENT_SET_NO = 999
REV_AT_EPOCH   = 23348
BSTAR          = -.14653164E-1
MEAN_MOTION_DOT = -.678E-5
MEAN_MOTION_DDOT = 0

CCSDS_OMM_VERS = 2.0
CREATION_DATE  = 
ORIGINATOR     = 

OBJECT_NAME    = UNKNOWN
OBJECT_ID      = 
CENTER_NAME    = EARTH
REF_FRAME      = TEME
TIME_SYSTEM    = UTC
MEAN_ELEMENT_THEORY = SGP/SGP4

EPOCH          = 2026-01-19T00:07:39.441504
MEAN_MOTION    = 12.78817623
ECCENTRICITY   = .00687956
INCLINATION    = 66.0649
RA_OF_ASC_NODE = 251.1504
ARG_OF_PERICENTER = 5.6359
MEAN_ANOMALY   = 354.5414

EPHEMERIS_TYPE = 0
CLASSIFICATION_TYPE = U
NORAD_CAT_ID   = 270247
ELEMENT_SET_NO = 999
REV_AT_EPOCH   = 27681
BSTAR          = .14946946E-2
MEAN_MOTION_DOT = .277E-5
MEAN_MOTION_DDOT = 0

CCSDS_OMM_VERS = 2.0
CREATION_DATE  = 
ORIGINATOR     = 

OBJECT_NAME    = UNKNOWN
OBJECT_ID      = 
CENTER_NAME    = EARTH
REF_FRAME      = TEME
TIME_SYSTEM    = UTC
MEAN_ELEMENT_THEORY = SGP/SGP4

EPOCH          = 2026-01-17T02:39:50.796576
MEAN_MOTION    = 12.25504563
ECCENTRICITY   = .00248833
INCLINATION    = 82.4614
RA_OF_ASC_NODE = 312.4214
ARG_OF_PERICENTER = 353.7451
MEAN_ANOMALY   = 6.3305

EPHEMERIS_TYPE = 0
CLASSIFICATION_TYPE = U
NORAD_CAT_ID   = 270248
ELEMENT_SET_NO = 999
REV_AT_EPOCH   = 26393
BSTAR          = .38295396E-2
MEAN_MOTION_DOT = .434E-5
MEAN_MOTION_DDOT = 0

CCSDS_OMM_VERS = 2.0
CREATION_DATE  = 
ORIGINATOR     = 

OBJECT_NAME    = UNKNOWN
OBJECT_ID      = 
CENTER_NAME    = EARTH
REF_FRAME      = TEME
TIME_SYSTEM    = UTC
MEAN_ELEMENT_THEORY = SGP/SGP4

EPOCH          = 2026-01-10T16:34:33.955392
MEAN_MOTION    = 12.95395839
ECCENTRICITY   = .00272183
INCLINATION    = 90.2380
RA_OF_ASC_NODE = 3.0108
ARG_OF_PERICENTER = 253.0636
MEAN_ANOMALY   = 106.7500

EPHEMERIS_TYPE = 0
CLASSIFICATION_TYPE = U
NORAD_CAT_ID   = 270249
ELEMENT_SET_NO = 999
REV_AT_EPOCH   = 27819
BSTAR          = -.36116704E-3
MEAN_MOTION_DOT = -.95E-6
MEAN_MOTION_DDOT = 0

CCSDS_OMM_VERS = 2.0
CREATION_DATE  = 
ORIGINATOR     = 

OBJECT_NAME    = UNKNOWN
OBJECT_ID      = 
CENTER_NAME    = EARTH
REF_FRAME      = TEME
TIME_SYSTEM    = UTC
MEAN_ELEMENT_THEORY = SGP/SGP4

EPOCH          = 2026-01-10T07:31:55.769088
MEAN_MOTION    = 12.59682885
ECCENTRICITY   = .01830365
INCLINATION    = 82.4539
RA_OF_ASC_NODE = 233.8773
ARG_OF_PERICENTER = 256.4114
MEAN_ANOMALY   = 101.6530

EPHEMERIS_TYPE = 0
CLASSIFICATION_TYPE = U
NORAD_CAT_ID   = 270250
ELEMENT_SET_NO = 999
REV_AT_EPOCH   = 26902
BSTAR          = .11027645E-1
MEAN_MOTION_DOT = .2039E-4
MEAN_MOTION_DDOT = 0

CCSDS_OMM_VERS = 2.0
CREATION_DATE  = 
ORIGINATOR     = 

OBJECT_NAME    = UNKNOWN
OBJECT_ID      = 
CENTER_NAME    = EARTH
REF_FRAME      = TEME
TIME_SYSTEM    = UTC
MEAN_ELEMENT_THEORY = SGP/SGP4

EPOCH          = 2026-01-13T12:49:38.777376
MEAN_MOTION    = 11.48664706
ECCENTRICITY   = .06691257
INCLINATION    = 102.3067
RA_OF_ASC_NODE = 301.5661
ARG_OF_PERICENTER = 112.0661
MEAN_ANOMALY   = 255.2761

EPHEMERIS_TYPE = 0
CLASSIFICATION_TYPE = U
NORAD_CAT_ID   = 270251
ELEMENT_SET_NO = 999
REV_AT_EPOCH   = 24707
BSTAR          = .80410984E-1
MEAN_MOTION_DOT = .5954E-4
MEAN_MOTION_DDOT = 0

CCSDS_OMM_VERS = 2.0
CREATION_DATE  = 
ORIGINATOR     = 

OBJECT_NAME    = UNKNOWN
OBJECT_ID      = 
CENTER_NAME    = EARTH
REF_FRAME      = TEME
TIME_SYSTEM    = UTC
MEAN_ELEMENT_THEORY = SGP/SGP4

EPOCH          = 2026-01-16T03:58:08.014656
MEAN_MOTION    = 12.62397863
ECCENTRICITY   = .00007629
INCLINATION    = 51.9835
RA_OF_ASC_NODE = 338.3888
ARG_OF_PERICENTER = 30.7414
MEAN_ANOMALY   = 329.3497

EPHEMERIS_TYPE = 0
CLASSIFICATION_TYPE = U
NORAD_CAT_ID   = 270252
ELEMENT_SET_NO = 999
REV_AT_EPOCH   = 27334
BSTAR          = -.30356884E-4
MEAN_MOTION_DOT = -.109E-5
MEAN_MOTION_DDOT = 0

CCSDS_OMM_VERS = 2.0
CREATION_DATE  = 
ORIGINATOR     = 

OBJECT_NAME    = UNKNOWN
OBJECT_ID      = 
CENTER_NAME    = EARTH
REF_FRAME      = TEME
TIME_SYSTEM    = UTC
MEAN_ELEMENT_THEORY = SGP/SGP4

EPOCH          = 2026-01-13T17:07:43.390560
MEAN_MOTION    = 13.00239101
ECCENTRICITY   = .00331037
INCLINATION    = 90.2417
RA_OF_ASC_NODE = 3.3838
ARG_OF_PERICENTER = 284.3463
MEAN_ANOMALY   = 75.3985

EPHEMERIS_TYPE = 0
CLASSIFICATION_TYPE = U
NORAD_CAT_ID   = 270253
ELEMENT_SET_NO = 999
REV_AT_EPOCH   = 27937
BSTAR          = .23639416E-2
MEAN_MOTION_DOT = .722E-5
MEAN_MOTION_DDOT = 0

CCSDS_OMM_VERS = 2.0
CREATION_DATE  = 
ORIGINATOR     = 

OBJECT_NAME    = UNKNOWN
OBJECT_ID      = 
CENTER_NAME    = EARTH
REF_FRAME      = TEME
TIME_SYSTEM    = UTC
MEAN_ELEMENT_THEORY = SGP/SGP4

EPOCH          = 2026-01-14T16:08:04.730208
MEAN_MOTION    = 12.93268656
ECCENTRICITY   = .00332681
INCLINATION    = 90.2444
RA_OF_ASC_NODE = 4.1498
ARG_OF_PERICENTER = 317.2127
MEAN_ANOMALY   = 42.6402

EPHEMERIS_TYPE = 0
CLASSIFICATION_TYPE = U
NORAD_CAT_ID   = 270256
ELEMENT_SET_NO = 999
REV_AT_EPOCH   = 27917
BSTAR          = .46922269E-3
MEAN_MOTION_DOT = .136E-5
MEAN_MOTION_DDOT = 0

CCSDS_OMM_VERS = 2.0
CREATION_DATE  = 
ORIGINATOR     = 

OBJECT_NAME    = UNKNOWN
OBJECT_ID      = 
CENTER_NAME    = EARTH
REF_FRAME      = TEME
TIME_SYSTEM    = UTC
MEAN_ELEMENT_THEORY = SGP/SGP4

EPOCH          = 2026-01-19T01:43:06.456000
MEAN_MOTION    = 14.85722333
ECCENTRICITY   = .00619653
INCLINATION    = 86.0769
RA_OF_ASC_NODE = 311.4044
ARG_OF_PERICENTER = 160.2201
MEAN_ANOMALY   = 200.1448

EPHEMERIS_TYPE = 0
CLASSIFICATION_TYPE = U
NORAD_CAT_ID   = 270257
ELEMENT_SET_NO = 999
REV_AT_EPOCH   = 8448
BSTAR          = .7863999E-2
MEAN_MOTION_DOT = .71275E-3
MEAN_MOTION_DDOT = 0

CCSDS_OMM_VERS = 2.0
CREATION_DATE  = 
ORIGINATOR     = 

OBJECT_NAME    = UNKNOWN
OBJECT_ID      = 
CENTER_NAME    = EARTH
REF_FRAME      = TEME
TIME_SYSTEM    = UTC
MEAN_ELEMENT_THEORY = SGP/SGP4

EPOCH          = 2026-01-19T11:39:50.834592
MEAN_MOTION    = 12.33999138
ECCENTRICITY   = .03608269
INCLINATION    = 82.3663
RA_OF_ASC_NODE = 291.7137
ARG_OF_PERICENTER = 296.0178
MEAN_ANOMALY   = 60.4156

EPHEMERIS_TYPE = 0
CLASSIFICATION_TYPE = U
NORAD_CAT_ID   = 270258
ELEMENT_SET_NO = 999
REV_AT_EPOCH   = 26475
BSTAR          = -.20598401E-1
MEAN_MOTION_DOT = -.3162E-4
MEAN_MOTION_DDOT = 0

CCSDS_OMM_VERS = 2.0
CREATION_DATE  = 
ORIGINATOR     = 

OBJECT_NAME    = UNKNOWN
OBJECT_ID      = 
CENTER_NAME    = EARTH
REF_FRAME      = TEME
TIME_SYSTEM    = UTC
MEAN_ELEMENT_THEORY = SGP/SGP4

EPOCH          = 2026-01-19T00:02:26.732256
MEAN_MOTION    = 12.83388186
ECCENTRICITY   = .03798982
INCLINATION    = 63.2091
RA_OF_ASC_NODE = 284.7020
ARG_OF_PERICENTER = 22.2940
MEAN_ANOMALY   = 339.4086

EPHEMERIS_TYPE = 0
CLASSIFICATION_TYPE = U
NORAD_CAT_ID   = 270261
ELEMENT_SET_NO = 999
REV_AT_EPOCH   = 27502
BSTAR          = .14652136E-2
MEAN_MOTION_DOT = .399E-5
MEAN_MOTION_DDOT = 0

CCSDS_OMM_VERS = 2.0
CREATION_DATE  = 
ORIGINATOR     = 

OBJECT_NAME    = UNKNOWN
OBJECT_ID      = 
CENTER_NAME    = EARTH
REF_FRAME      = TEME
TIME_SYSTEM    = UTC
MEAN_ELEMENT_THEORY = SGP/SGP4

EPOCH          = 2026-01-19T05:09:55.009728
MEAN_MOTION    = 12.95588538
ECCENTRICITY   = .00305356
INCLINATION    = 90.2446
RA_OF_ASC_NODE = 5.9224
ARG_OF_PERICENTER = 200.6125
MEAN_ANOMALY   = 159.3765

EPHEMERIS_TYPE = 0
CLASSIFICATION_TYPE = U
NORAD_CAT_ID   = 270262
ELEMENT_SET_NO = 999
REV_AT_EPOCH   = 27698
BSTAR          = -.23568055E-3
MEAN_MOTION_DOT = -.59E-6
MEAN_MOTION_DDOT = 0

CCSDS_OMM_VERS = 2.0
CREATION_DATE  = 
ORIGINATOR     = 

OBJECT_NAME    = UNKNOWN
OBJECT_ID      = 
CENTER_NAME    = EARTH
REF_FRAME      = TEME
TIME_SYSTEM    = UTC
MEAN_ELEMENT_THEORY = SGP/SGP4

EPOCH          = 2026-01-16T23:10:36.451488
MEAN_MOTION    = 14.34920026
ECCENTRICITY   = .00325657
INCLINATION    = 86.4354
RA_OF_ASC_NODE = 104.6536
ARG_OF_PERICENTER = 224.3143
MEAN_ANOMALY   = 135.5446

EPHEMERIS_TYPE = 0
CLASSIFICATION_TYPE = U
NORAD_CAT_ID   = 270263
ELEMENT_SET_NO = 999
REV_AT_EPOCH   = 30790
BSTAR          = .21008947E-3
MEAN_MOTION_DOT = .62E-5
MEAN_MOTION_DDOT = 0

CCSDS_OMM_VERS = 2.0
CREATION_DATE  = 
ORIGINATOR     = 

OBJECT_NAME    = UNKNOWN
OBJECT_ID      = 
CENTER_NAME    = EARTH
REF_FRAME      = TEME
TIME_SYSTEM    = UTC
MEAN_ELEMENT_THEORY = SGP/SGP4

EPOCH          = 2026-01-19T08:00:17.563104
MEAN_MOTION    = 13.15531272
ECCENTRICITY   = .00196738
INCLINATION    = 82.5459
RA_OF_ASC_NODE = 250.1248
ARG_OF_PERICENTER = 284.3544
MEAN_ANOMALY   = 75.5394

EPHEMERIS_TYPE = 0
CLASSIFICATION_TYPE = U
NORAD_CAT_ID   = 270264
ELEMENT_SET_NO = 999
REV_AT_EPOCH   = 28108
BSTAR          = .28527775E-2
MEAN_MOTION_DOT = .1087E-4
MEAN_MOTION_DDOT = 0

CCSDS_OMM_VERS = 2.0
CREATION_DATE  = 
ORIGINATOR     = 

OBJECT_NAME    = UNKNOWN
OBJECT_ID      = 
CENTER_NAME    = EARTH
REF_FRAME      = TEME
TIME_SYSTEM    = UTC
MEAN_ELEMENT_THEORY = SGP/SGP4

EPOCH          = 2026-01-02T20:25:49.139616
MEAN_MOTION    = 12.71828806
ECCENTRICITY   = .01048327
INCLINATION    = 82.4578
RA_OF_ASC_NODE = 219.0685
ARG_OF_PERICENTER = 180.1991
MEAN_ANOMALY   = 179.9082

EPHEMERIS_TYPE = 0
CLASSIFICATION_TYPE = U
NORAD_CAT_ID   = 270265
ELEMENT_SET_NO = 999
REV_AT_EPOCH   = 26827
BSTAR          = .28750239E-1
MEAN_MOTION_DOT = .599E-4
MEAN_MOTION_DDOT = 0

